[{"OBJECT_NAME":"LEMUR-2-PETERG","OBJECT_ID":"2017-042S","EPOCH":"2026-03-09T11:34:35.656032","MEAN_MOTION":15.29611459,"ECCENTRICITY":0.00037,"INCLINATION":97.398,"RA_OF_ASC_NODE":253.6596,"ARG_OF_PERICENTER":341.6938,"MEAN_ANOMALY":18.4169,"EPHEMERIS_TYPE":0,"CLASSIFICATION_TYPE":"U","NORAD_CAT_ID":42841,"ELEMENT_SET_NO":999,"REV_AT_EPOCH":47317,"BSTAR":0.00081076471,"MEAN_MOTION_DOT":0.0002324,"MEAN_MOTION_DDOT":0},{"OBJECT_NAME":"STARLINK-2533","OBJECT_ID":"2021-036U","EPOCH":"2026-03-09T07:36:01.618560","MEAN_MOTION":15.3019536,"ECCENTRICITY":0.00011709,"INCLINATION":53.1612,"RA_OF_ASC_NODE":76.9993,"ARG_OF_PERICENTER":119.6807,"MEAN_ANOMALY":240.431,"EPHEMERIS_TYPE":0,"CLASSIFICATION_TYPE":"U","NORAD_CAT_ID":48294,"ELEMENT_SET_NO":999,"REV_AT_EPOCH":26835,"BSTAR":-4.499489e-5,"MEAN_MOTION_DOT":-1.691e-5,"MEAN_MOTION_DDOT":0}]
